{"type": "FeatureCollection", "features": [ {"type": "Feature", "properties": {"norad_id": 34001, "name": "COSMOS 2251 DEB", "group": "cosmos-2251-debris", "lat": 45.28999557185586, "lon": 66.99785230211454, "alt_km": 776.3153329897514, "timestamp": "2025-12-22T09:53:37.793472+00:00", "meta": {"OBJECT_NAME": "COSMOS 2251 DEB", "OBJECT_ID": "1993-036GL", "EPOCH": "2025-12-22T03:10:27.983712", "MEAN_MOTION": 14.37108968, "ECCENTRICITY": 0.0020361, "INCLINATION": 74.0389, "RA_OF_ASC_NODE": 264.317, "ARG_OF_PERICENTER": 343.5337, "MEAN_ANOMALY": 140.7195, "EPHEMERIS_TYPE": 0, "CLASSIFICATION_TYPE": "U", "NORAD_CAT_ID": 34001, "ELEMENT_SET_NO": 999, "REV_AT_EPOCH": 88281, "BSTAR": 0.00016406, "MEAN_MOTION_DOT": 4.62e-06, "MEAN_MOTION_DDOT": 0}, "tle": {"line1": "1 34001U 93036GL  25356.13226833  .00000462  00000+0  16406-3 0  9999", "line2": "2 34001  74.0389 264.3170 0020361 343.5337 140.7195 14.37108968882815"}}, "geometry": {"type": "Point", "coordinates": [66.99785230211454, 45.28999557185586]}}, {"type": "Feature", "properties": {"norad_id": 34003, "name": "COSMOS 2251 DEB", "group": "cosmos-2251-debris", "lat": -23.13688582855592, "lon": -98.14259344870086, "alt_km": 803.3975032525177, "timestamp": "2025-12-22T09:53:37.793482+00:00", "meta": {"OBJECT_NAME": "COSMOS 2251 DEB", "OBJECT_ID": "1993-036GN", "EPOCH": "2025-12-21T04:31:05.940480", "MEAN_MOTION": 13.84194066, "ECCENTRICITY": 0.02749729, "INCLINATION": 74.0776, "RA_OF_ASC_NODE": 270.923, "ARG_OF_PERICENTER": 21.0006, "MEAN_ANOMALY": 340.2152, "EPHEMERIS_TYPE": 0, "CLASSIFICATION_TYPE": "U", "NORAD_CAT_ID": 34003, "ELEMENT_SET_NO": 999, "REV_AT_EPOCH": 84542, "BSTAR": 0.0013455154, "MEAN_MOTION_DOT": 1.989e-05, "MEAN_MOTION_DDOT": 0}, "tle": {"line1": "1 34003U 93036GN  25355.18826320  .00001989  00000+0  13455-2 0  9997", "line2": "2 34003  74.0776 270.9230 0274972  21.0006 340.2152 13.84194066845428"}}, "geometry": {"type": "Point", "coordinates": [-98.14259344870086, -23.13688582855592]}}, {"type": "Feature", "properties": {"norad_id": 34004, "name": "COSMOS 2251 DEB", "group": "cosmos-2251-debris", "lat": 67.5566085432483, "lon": -21.159214040054678, "alt_km": 736.3137402377915, "timestamp": "2025-12-22T09:53:37.793492+00:00", "meta": {"OBJECT_NAME": "COSMOS 2251 DEB", "OBJECT_ID": "1993-036GP", "EPOCH": "2025-12-21T20:17:54.240288", "MEAN_MOTION": 14.49084288, "ECCENTRICITY": 0.0033467, "INCLINATION": 74.036, "RA_OF_ASC_NODE": 296.0336, "ARG_OF_PERICENTER": 307.1928, "MEAN_ANOMALY": 52.6178, "EPHEMERIS_TYPE": 0, "CLASSIFICATION_TYPE": "U", "NORAD_CAT_ID": 34004, "ELEMENT_SET_NO": 999, "REV_AT_EPOCH": 88162, "BSTAR": 0.00093962, "MEAN_MOTION_DOT": 3.569e-05, "MEAN_MOTION_DDOT": 0}, "tle": {"line1": "1 34004U 93036GP  25355.84576667  .00003569  00000+0  93962-3 0  9995", "line2": "2 34004  74.0360 296.0336 0033467 307.1928  52.6178 14.49084288881627"}}, "geometry": {"type": "Point", "coordinates": [-21.159214040054678, 67.5566085432483]}}, {"type": "Feature", "properties": {"norad_id": 34005, "name": "COSMOS 2251 DEB", "group": "cosmos-2251-debris", "lat": 41.29002171579112, "lon": -149.67079538860193, "alt_km": 754.0628278479062, "timestamp": "2025-12-22T09:53:37.793502+00:00", "meta": {"OBJECT_NAME": "COSMOS 2251 DEB", "OBJECT_ID": "1993-036GQ", "EPOCH": "2025-12-21T22:34:41.009088", "MEAN_MOTION": 14.40310551, "ECCENTRICITY": 0.0021135, "INCLINATION": 74.0435, "RA_OF_ASC_NODE": 196.6477, "ARG_OF_PERICENTER": 313.328, "MEAN_ANOMALY": 166.103, "EPHEMERIS_TYPE": 0, "CLASSIFICATION_TYPE": "U", "NORAD_CAT_ID": 34005, "ELEMENT_SET_NO": 999, "REV_AT_EPOCH": 88511, "BSTAR": 9.4593e-05, "MEAN_MOTION_DOT": 2.74e-06, "MEAN_MOTION_DDOT": 0}, "tle": {"line1": "1 34005U 93036GQ  25355.94075242  .00000274  00000+0  94593-4 0  9992", "line2": "2 34005  74.0435 196.6477 0021135 313.3280 166.1030 14.40310551885113"}}, "geometry": {"type": "Point", "coordinates": [-149.67079538860193, 41.29002171579112]}}, {"type": "Feature", "properties": {"norad_id": 34006, "name": "COSMOS 2251 DEB", "group": "cosmos-2251-debris", "lat": 50.59898467700344, "lon": 144.1690853646328, "alt_km": 568.4550592213745, "timestamp": "2025-12-22T09:53:37.793512+00:00", "meta": {"OBJECT_NAME": "COSMOS 2251 DEB", "OBJECT_ID": "1993-036GR", "EPOCH": "2025-12-21T09:51:01.000800", "MEAN_MOTION": 14.95286049, "ECCENTRICITY": 0.00113596, "INCLINATION": 74.0537, "RA_OF_ASC_NODE": 125.8173, "ARG_OF_PERICENTER": 61.1141, "MEAN_ANOMALY": 1.8389, "EPHEMERIS_TYPE": 0, "CLASSIFICATION_TYPE": "U", "NORAD_CAT_ID": 34006, "ELEMENT_SET_NO": 999, "REV_AT_EPOCH": 88798, "BSTAR": 0.0025287679, "MEAN_MOTION_DOT": 0.00027969, "MEAN_MOTION_DDOT": 0}, "tle": {"line1": "1 34006U 93036GR  25355.41042825  .00027969  00000+0  25288-2 0  9999", "line2": "2 34006  74.0537 125.8173 0011359  61.1141   1.8389 14.95286049887988"}}, "geometry": {"type": "Point", "coordinates": [144.1690853646328, 50.59898467700344]}}, {"type": "Feature", "properties": {"norad_id": 34007, "name": "COSMOS 2251 DEB", "group": "cosmos-2251-debris", "lat": 17.328844532612482, "lon": -26.594171370377975, "alt_km": 673.1831767909107, "timestamp": "2025-12-22T09:53:37.793522+00:00", "meta": {"OBJECT_NAME": "COSMOS 2251 DEB", "OBJECT_ID": "1993-036GS", "EPOCH": "2025-12-21T22:20:17.428992", "MEAN_MOTION": 14.6484608, "ECCENTRICITY": 0.0044249, "INCLINATION": 74.0192, "RA_OF_ASC_NODE": 329.2023, "ARG_OF_PERICENTER": 101.1397, "MEAN_ANOMALY": 259.4751, "EPHEMERIS_TYPE": 0, "CLASSIFICATION_TYPE": "U", "NORAD_CAT_ID": 34007, "ELEMENT_SET_NO": 999, "REV_AT_EPOCH": 89214, "BSTAR": 0.00066678, "MEAN_MOTION_DOT": 3.583e-05, "MEAN_MOTION_DDOT": 0}, "tle": {"line1": "1 34007U 93036GS  25355.93075728  .00003583  00000+0  66678-3 0  9990", "line2": "2 34007  74.0192 329.2023 0044249 101.1397 259.4751 14.64846080892143"}}, "geometry": {"type": "Point", "coordinates": [-26.594171370377975, 17.328844532612482]}}, {"type": "Feature", "properties": {"norad_id": 34008, "name": "COSMOS 2251 DEB", "group": "cosmos-2251-debris", "lat": 57.399847472382795, "lon": -20.56690353610838, "alt_km": 782.68150194181, "timestamp": "2025-12-22T09:53:37.793531+00:00", "meta": {"OBJECT_NAME": "COSMOS 2251 DEB", "OBJECT_ID": "1993-036GT", "EPOCH": "2025-12-21T22:09:51.931008", "MEAN_MOTION": 14.33152377, "ECCENTRICITY": 0.0024588, "INCLINATION": 74.0346, "RA_OF_ASC_NODE": 313.7338, "ARG_OF_PERICENTER": 307.48, "MEAN_ANOMALY": 113.0199, "EPHEMERIS_TYPE": 0, "CLASSIFICATION_TYPE": "U", "NORAD_CAT_ID": 34008, "ELEMENT_SET_NO": 999, "REV_AT_EPOCH": 88096, "BSTAR": 0.00011199, "MEAN_MOTION_DOT": 2.82e-06, "MEAN_MOTION_DDOT": 0}, "tle": {"line1": "1 34008U 93036GT  25355.92351772  .00000282  00000+0  11199-3 0  9997", "line2": "2 34008  74.0346 313.7338 0024588 307.4800 113.0199 14.33152377880969"}}, "geometry": {"type": "Point", "coordinates": [-20.56690353610838, 57.399847472382795]}}, {"type": "Feature", "properties": {"norad_id": 34009, "name": "COSMOS 2251 DEB", "group": "cosmos-2251-debris", "lat": 71.26972945993842, "lon": 81.68105798776953, "alt_km": 768.3188400751624, "timestamp": "2025-12-22T09:53:37.793541+00:00", "meta": {"OBJECT_NAME": "COSMOS 2251 DEB", "OBJECT_ID": "1993-036GU", "EPOCH": "2025-12-22T04:28:18.328800", "MEAN_MOTION": 14.33229457, "ECCENTRICITY": 0.0026864, "INCLINATION": 74.0376, "RA_OF_ASC_NODE": 319.6727, "ARG_OF_PERICENTER": 26.5364, "MEAN_ANOMALY": 347.8699, "EPHEMERIS_TYPE": 0, "CLASSIFICATION_TYPE": "U", "NORAD_CAT_ID": 34009, "ELEMENT_SET_NO": 999, "REV_AT_EPOCH": 88081, "BSTAR": 0.00013328, "MEAN_MOTION_DOT": 3.42e-06, "MEAN_MOTION_DDOT": 0}, "tle": {"line1": "1 34009U 93036GU  25356.18632325  .00000342  00000+0  13328-3 0  9996", "line2": "2 34009  74.0376 319.6727 0026864  26.5364 347.8699 14.33229457880813"}}, "geometry": {"type": "Point", "coordinates": [81.68105798776953, 71.26972945993842]}}, {"type": "Feature", "properties": {"norad_id": 34010, "name": "COSMOS 2251 DEB", "group": "cosmos-2251-debris", "lat": 73.78029840267604, "lon": 2.430419294519017, "alt_km": 495.2021622085849, "timestamp": "2025-12-22T09:53:37.793551+00:00", "meta": {"OBJECT_NAME": "COSMOS 2251 DEB", "OBJECT_ID": "1993-036GV", "EPOCH": "2025-12-22T03:10:14.189952", "MEAN_MOTION": 15.20165114, "ECCENTRICITY": 0.0004526, "INCLINATION": 73.9986, "RA_OF_ASC_NODE": 263.5927, "ARG_OF_PERICENTER": 58.9141, "MEAN_ANOMALY": 301.25, "EPHEMERIS_TYPE": 0, "CLASSIFICATION_TYPE": "U", "NORAD_CAT_ID": 34010, "ELEMENT_SET_NO": 999, "REV_AT_EPOCH": 89428, "BSTAR": 0.0041942, "MEAN_MOTION_DOT": 0.00091954, "MEAN_MOTION_DDOT": 0}, "tle": {"line1": "1 34010U 93036GV  25356.13210868  .00091954  00000+0  41942-2 0  9998", "line2": "2 34010  73.9986 263.5927 0004526  58.9141 301.2500 15.20165114894289"}}, "geometry": {"type": "Point", "coordinates": [2.430419294519017, 73.78029840267604]}}, {"type": "Feature", "properties": {"norad_id": 34011, "name": "COSMOS 2251 DEB", "group": "cosmos-2251-debris", "lat": 40.883104413208976, "lon": -33.43051155803667, "alt_km": 723.6019395513949, "timestamp": "2025-12-22T09:53:37.793561+00:00", "meta": {"OBJECT_NAME": "COSMOS 2251 DEB", "OBJECT_ID": "1993-036GW", "EPOCH": "2025-12-20T21:03:41.222016", "MEAN_MOTION": 14.41804306, "ECCENTRICITY": 0.0036046, "INCLINATION": 74.0145, "RA_OF_ASC_NODE": 315.0473, "ARG_OF_PERICENTER": 36.2778, "MEAN_ANOMALY": 324.0811, "EPHEMERIS_TYPE": 0, "CLASSIFICATION_TYPE": "U", "NORAD_CAT_ID": 34011, "ELEMENT_SET_NO": 999, "REV_AT_EPOCH": 88033, "BSTAR": 0.00051243, "MEAN_MOTION_DOT": 1.661e-05, "MEAN_MOTION_DDOT": 0}, "tle": {"line1": "1 34011U 93036GW  25354.87756044  .00001661  00000+0  51243-3 0  9991", "line2": "2 34011  74.0145 315.0473 0036046  36.2778 324.0811 14.41804306880339"}}, "geometry": {"type": "Point", "coordinates": [-33.43051155803667, 40.883104413208976]}}]}